[
  {
    "COMMENT": "GENERATED VIA SPACETRACK.ORG API",
    "ORIGINATOR": "18 SPCS",
    "NORAD_CAT_ID": "43682",
    "OBJECT_NAME": "H-2A R/B",
    "OBJECT_TYPE": "ROCKET BODY",
    "CLASSIFICATION_TYPE": "U",
    "INTLDES": "18084L",
    "EPOCH": "2020-02-09 11:40:09",
    "EPOCH_MICROSECONDS": "655968",
    "MEAN_MOTION": "15.0275888",
    "ECCENTRICITY": "0.0056802",
    "INCLINATION": "98.8987",
    "RA_OF_ASC_NODE": "228.4707",
    "ARG_OF_PERICENTER": "195.8247",
    "MEAN_ANOMALY": "164.1206",
    "EPHEMERIS_TYPE": "0",
    "ELEMENT_SET_NO": "999",
    "REV_AT_EPOCH": "7028",
    "BSTAR": "-0.000026557",
    "MEAN_MOTION_DOT": "-0.00000453",
    "MEAN_MOTION_DDOT": "0",
    "FILE": "2697616",
    "TLE_LINE0": "0 H-2A R/B",
    "TLE_LINE1": "1 43682U 18084L   20040.48622287 -.00000453  00000-0 -26557-4 0  9992",
    "TLE_LINE2": "2 43682  98.8987 228.4707 0056802 195.8247 164.1206 15.02758880 70282",
    "OBJECT_ID": "2018-084L",
    "OBJECT_NUMBER": "43682",
    "SEMIMAJOR_AXIS": "6936.531",
    "PERIOD": "95.824",
    "APOGEE": "597.796",
    "PERIGEE": "518.995",
    "DECAYED": "0"
  },
  {
    "COMMENT": "GENERATED VIA SPACETRACK.ORG API",
    "ORIGINATOR": "18 SPCS",
    "NORAD_CAT_ID": "43682",
    "OBJECT_NAME": "H-2A R/B",
    "OBJECT_TYPE": "ROCKET BODY",
    "CLASSIFICATION_TYPE": "U",
    "INTLDES": "18084L",
    "EPOCH": "2020-02-09 22:51:20",
    "EPOCH_MICROSECONDS": "236320",
    "MEAN_MOTION": "15.02758613",
    "ECCENTRICITY": "0.0056743",
    "INCLINATION": "98.8988",
    "RA_OF_ASC_NODE": "229.0058",
    "ARG_OF_PERICENTER": "194.3001",
    "MEAN_ANOMALY": "165.6618",
    "EPHEMERIS_TYPE": "0",
    "ELEMENT_SET_NO": "999",
    "REV_AT_EPOCH": "7035",
    "BSTAR": "-0.000025602",
    "MEAN_MOTION_DOT": "-0.00000439",
    "MEAN_MOTION_DDOT": "0",
    "FILE": "2697829",
    "TLE_LINE0": "0 H-2A R/B",
    "TLE_LINE1": "1 43682U 18084L   20040.95231755 -.00000439 +00000-0 -25602-4 0  9994",
    "TLE_LINE2": "2 43682 098.8988 229.0058 0056743 194.3001 165.6618 15.02758613070350",
    "OBJECT_ID": "2018-084L",
    "OBJECT_NUMBER": "43682",
    "SEMIMAJOR_AXIS": "6936.531",
    "PERIOD": "95.824",
    "APOGEE": "597.756",
    "PERIGEE": "519.036",
    "DECAYED": "0"
  },
  {
    "COMMENT": "GENERATED VIA SPACETRACK.ORG API",
    "ORIGINATOR": "18 SPCS",
    "NORAD_CAT_ID": "43682",
    "OBJECT_NAME": "H-2A R/B",
    "OBJECT_TYPE": "ROCKET BODY",
    "CLASSIFICATION_TYPE": "U",
    "INTLDES": "18084L",
    "EPOCH": "2020-02-10 13:14:16",
    "EPOCH_MICROSECONDS": "696032",
    "MEAN_MOTION": "15.02758279",
    "ECCENTRICITY": "0.0056743",
    "INCLINATION": "98.8981",
    "RA_OF_ASC_NODE": "229.6928",
    "ARG_OF_PERICENTER": "192.5191",
    "MEAN_ANOMALY": "167.4624",
    "EPHEMERIS_TYPE": "0",
    "ELEMENT_SET_NO": "999",
    "REV_AT_EPOCH": "7044",
    "BSTAR": "-0.000024535",
    "MEAN_MOTION_DOT": "-0.00000425",
    "MEAN_MOTION_DDOT": "0",
    "FILE": "2697988",
    "TLE_LINE0": "0 H-2A R/B",
    "TLE_LINE1": "1 43682U 18084L   20041.55158213 -.00000425  00000-0 -24535-4 0  9997",
    "TLE_LINE2": "2 43682  98.8981 229.6928 0056743 192.5191 167.4624 15.02758279 70440",
    "OBJECT_ID": "2018-084L",
    "OBJECT_NUMBER": "43682",
    "SEMIMAJOR_AXIS": "6936.532",
    "PERIOD": "95.824",
    "APOGEE": "597.757",
    "PERIGEE": "519.037",
    "DECAYED": "0"
  },
  {
    "COMMENT": "GENERATED VIA SPACETRACK.ORG API",
    "ORIGINATOR": "18 SPCS",
    "NORAD_CAT_ID": "43682",
    "OBJECT_NAME": "H-2A R/B",
    "OBJECT_TYPE": "ROCKET BODY",
    "CLASSIFICATION_TYPE": "U",
    "INTLDES": "18084L",
    "EPOCH": "2020-02-10 13:14:16",
    "EPOCH_MICROSECONDS": "696032",
    "MEAN_MOTION": "15.02758337",
    "ECCENTRICITY": "0.0056717",
    "INCLINATION": "98.8981",
    "RA_OF_ASC_NODE": "229.6929",
    "ARG_OF_PERICENTER": "192.5303",
    "MEAN_ANOMALY": "167.4513",
    "EPHEMERIS_TYPE": "0",
    "ELEMENT_SET_NO": "999",
    "REV_AT_EPOCH": "7044",
    "BSTAR": "-0.000023871",
    "MEAN_MOTION_DOT": "-0.00000415",
    "MEAN_MOTION_DDOT": "0",
    "FILE": "2698073",
    "TLE_LINE0": "0 H-2A R/B",
    "TLE_LINE1": "1 43682U 18084L   20041.55158213 -.00000415 +00000-0 -23871-4 0  9998",
    "TLE_LINE2": "2 43682 098.8981 229.6929 0056717 192.5303 167.4513 15.02758337070449",
    "OBJECT_ID": "2018-084L",
    "OBJECT_NUMBER": "43682",
    "SEMIMAJOR_AXIS": "6936.532",
    "PERIOD": "95.824",
    "APOGEE": "597.739",
    "PERIGEE": "519.055",
    "DECAYED": "0"
  },
  {
    "COMMENT": "GENERATED VIA SPACETRACK.ORG API",
    "ORIGINATOR": "18 SPCS",
    "NORAD_CAT_ID": "43682",
    "OBJECT_NAME": "H-2A R/B",
    "OBJECT_TYPE": "ROCKET BODY",
    "CLASSIFICATION_TYPE": "U",
    "INTLDES": "18084L",
    "EPOCH": "2020-02-10 22:49:34",
    "EPOCH_MICROSECONDS": "352256",
    "MEAN_MOTION": "15.0275809",
    "ECCENTRICITY": "0.0056706",
    "INCLINATION": "98.8982",
    "RA_OF_ASC_NODE": "230.1513",
    "ARG_OF_PERICENTER": "191.2166",
    "MEAN_ANOMALY": "168.7795",
    "EPHEMERIS_TYPE": "0",
    "ELEMENT_SET_NO": "999",
    "REV_AT_EPOCH": "7050",
    "BSTAR": "-0.000023598",
    "MEAN_MOTION_DOT": "-0.00000412",
    "MEAN_MOTION_DDOT": "0",
    "FILE": "2698301",
    "TLE_LINE0": "0 H-2A R/B",
    "TLE_LINE1": "1 43682U 18084L   20041.95109204 -.00000412 +00000-0 -23598-4 0  9991",
    "TLE_LINE2": "2 43682 098.8982 230.1513 0056706 191.2166 168.7795 15.02758090070506",
    "OBJECT_ID": "2018-084L",
    "OBJECT_NUMBER": "43682",
    "SEMIMAJOR_AXIS": "6936.533",
    "PERIOD": "95.824",
    "APOGEE": "597.732",
    "PERIGEE": "519.064",
    "DECAYED": "0"
  },
  {
    "COMMENT": "GENERATED VIA SPACETRACK.ORG API",
    "ORIGINATOR": "18 SPCS",
    "NORAD_CAT_ID": "43682",
    "OBJECT_NAME": "H-2A R/B",
    "OBJECT_TYPE": "ROCKET BODY",
    "CLASSIFICATION_TYPE": "U",
    "INTLDES": "18084L",
    "EPOCH": "2020-02-11 13:12:30",
    "EPOCH_MICROSECONDS": "757536",
    "MEAN_MOTION": "15.0275858",
    "ECCENTRICITY": "0.0056671",
    "INCLINATION": "98.898",
    "RA_OF_ASC_NODE": "230.8393",
    "ARG_OF_PERICENTER": "189.3035",
    "MEAN_ANOMALY": "170.7143",
    "EPHEMERIS_TYPE": "0",
    "ELEMENT_SET_NO": "999",
    "REV_AT_EPOCH": "7059",
    "BSTAR": "-0.000014208",
    "MEAN_MOTION_DOT": "-0.00000282",
    "MEAN_MOTION_DDOT": "0",
    "FILE": "2698722",
    "TLE_LINE0": "0 H-2A R/B",
    "TLE_LINE1": "1 43682U 18084L   20042.55035599 -.00000282 +00000-0 -14208-4 0  9996",
    "TLE_LINE2": "2 43682 098.8980 230.8393 0056671 189.3035 170.7143 15.02758580070594",
    "OBJECT_ID": "2018-084L",
    "OBJECT_NUMBER": "43682",
    "SEMIMAJOR_AXIS": "6936.532",
    "PERIOD": "95.824",
    "APOGEE": "597.707",
    "PERIGEE": "519.086",
    "DECAYED": "0"
  },
  {
    "COMMENT": "GENERATED VIA SPACETRACK.ORG API",
    "ORIGINATOR": "18 SPCS",
    "NORAD_CAT_ID": "43682",
    "OBJECT_NAME": "H-2A R/B",
    "OBJECT_TYPE": "ROCKET BODY",
    "CLASSIFICATION_TYPE": "U",
    "INTLDES": "18084L",
    "EPOCH": "2020-02-11 18:00:09",
    "EPOCH_MICROSECONDS": "581760",
    "MEAN_MOTION": "15.02758494",
    "ECCENTRICITY": "0.0056653",
    "INCLINATION": "98.8981",
    "RA_OF_ASC_NODE": "231.0685",
    "ARG_OF_PERICENTER": "188.6555",
    "MEAN_ANOMALY": "171.3693",
    "EPHEMERIS_TYPE": "0",
    "ELEMENT_SET_NO": "999",
    "REV_AT_EPOCH": "7062",
    "BSTAR": "-0.000014223",
    "MEAN_MOTION_DOT": "-0.00000282",
    "MEAN_MOTION_DDOT": "0",
    "FILE": "2698785",
    "TLE_LINE0": "0 H-2A R/B",
    "TLE_LINE1": "1 43682U 18084L   20042.75011090 -.00000282  00000-0 -14223-4 0  9995",
    "TLE_LINE2": "2 43682  98.8981 231.0685 0056653 188.6555 171.3693 15.02758494 70626",
    "OBJECT_ID": "2018-084L",
    "OBJECT_NUMBER": "43682",
    "SEMIMAJOR_AXIS": "6936.532",
    "PERIOD": "95.824",
    "APOGEE": "597.694",
    "PERIGEE": "519.099",
    "DECAYED": "0"
  },
  {
    "COMMENT": "GENERATED VIA SPACETRACK.ORG API",
    "ORIGINATOR": "18 SPCS",
    "NORAD_CAT_ID": "43682",
    "OBJECT_NAME": "H-2A R/B",
    "OBJECT_TYPE": "ROCKET BODY",
    "CLASSIFICATION_TYPE": "U",
    "INTLDES": "18084L",
    "EPOCH": "2020-02-11 22:47:48",
    "EPOCH_MICROSECONDS": "402528",
    "MEAN_MOTION": "15.02758545",
    "ECCENTRICITY": "0.0056706",
    "INCLINATION": "98.8981",
    "RA_OF_ASC_NODE": "231.2977",
    "ARG_OF_PERICENTER": "187.9407",
    "MEAN_ANOMALY": "172.0926",
    "EPHEMERIS_TYPE": "0",
    "ELEMENT_SET_NO": "999",
    "REV_AT_EPOCH": "7065",
    "BSTAR": "-0.000012705",
    "MEAN_MOTION_DOT": "-0.00000261",
    "MEAN_MOTION_DDOT": "0",
    "FILE": "2698852",
    "TLE_LINE0": "0 H-2A R/B",
    "TLE_LINE1": "1 43682U 18084L   20042.94986577 -.00000261 +00000-0 -12705-4 0  9997",
    "TLE_LINE2": "2 43682 098.8981 231.2977 0056706 187.9407 172.0926 15.02758545070656",
    "OBJECT_ID": "2018-084L",
    "OBJECT_NUMBER": "43682",
    "SEMIMAJOR_AXIS": "6936.532",
    "PERIOD": "95.824",
    "APOGEE": "597.731",
    "PERIGEE": "519.062",
    "DECAYED": "0"
  }
]